#aV2010 12 23  0  0   .00000000      96 DD+AD WGS84 FIT  NGA
## 1615 345600.00000000   900.00000000 55553  .0000000000000
+   32     1  2  3  4  5  6  7  8  9 10 11 12 13 14 15 16 17
+         18 19 20 21 22 23 24 25 26 27 28 29 30 31 32  0  0
+          0  0  0  0  0  0  0  0  0  0  0  0  0  0  0  0  0
+          0  0  0  0  0  0  0  0  0  0  0  0  0  0  0  0  0
+          0  0  0  0  0  0  0  0  0  0  0  0  0  0  0  0  0
++         0  0  0  0  0  0  0  0  0  0  0  0  0  0  0  0  0
++         0  0  0  0  0  0  0  0  0  0  0  0  0  0  0  0  0
++         0  0  0  0  0  0  0  0  0  0  0  0  0  0  0  0  0
++         0  0  0  0  0  0  0  0  0  0  0  0  0  0  0  0  0
++         0  0  0  0  0  0  0  0  0  0  0  0  0  0  0  0  0
%c cc cc ccc ccc cccc cccc cccc cccc ccccc ccccc ccccc ccccc
%c cc cc ccc ccc cccc cccc cccc cccc ccccc ccccc ccccc ccccc
%f  0.0000000  0.000000000  0.00000000000  0.000000000000000
%f  0.0000000  0.000000000  0.00000000000  0.000000000000000
%i    0    0    0    0      0      0      0      0         0
%i    0    0    0    0      0      0      0      0         0
/*      NGA, ST. LOUIS,MO.                                  
/*   EPHEMERIS COMPUTED FROM  3 DAYS OF DATA                
/* CCCCCCCCCCCCCCCCCCCCCCCCCCCCCCCCCCCCCCCCCCCCCCCCCCCCCCCCC
/* CCCCCCCCCCCCCCCCCCCCCCCCCCCCCCCCCCCCCCCCCCCCCCCCCCCCCCCCC
*  2010 12 23  6  0   .00000000                                                 
P  1   7986.841313 -17489.036256  18152.819471   -193.701754                    
V  1   7924.013666  21979.368923  17705.398991      -.033435                    
P  2  -5236.118903  14847.625234  21374.830951    310.316122                    
V  2 -26420.048129  -6638.665269  -2334.404639       .022995                    
P  3   6812.302148 -23089.419256 -11254.465641    652.430307                    
V  3  11070.071446  -9046.647778  26528.075612       .052968                    
P  4 -17091.181929   9318.478194  18017.606246    252.016562                    
V  4 -22103.059860  -7384.442618 -16601.316317       .098365                    
P  5   1030.268472  25103.199194   8435.714089    -87.236335                    
V  5  -5691.184752  -9570.555455  29217.440944      -.059547                    
P  6  12151.370829 -22256.922542  -7405.017826    384.880582                    
V  6   9077.129740  -4955.624514  29349.357830      -.085330                    
P  7 -26037.821849  -5523.719891  -1687.495284       .740934                    
V  7  -1505.507630  -2710.578978  31800.156477       .004906                    
P  8 -23626.002005    711.490680 -12636.798519      7.087561                    
V  8 -14657.678337  -6033.305147  26498.535560      -.000718                    
P  9  15761.597119  14619.378746 -16148.527651     50.586682                    
V  9 -19270.109316  -3018.132924 -22283.390893       .024666                    
P 10  -9818.461917  15545.933767  18828.370315    -61.123416                    
V 10  -7888.327106 -23253.775116  15290.314986      -.011033                    
P 11 -18801.920569 -12114.008392 -14879.180299   -113.477083                    
V 11  18489.208479  -3228.981600 -20815.083889      -.029193                    
P 12  11094.372079  23249.302855   6827.430250    -42.370129                    
V 12    151.546712   8841.319675 -30358.365417       .034107                    
P 13 -18304.515706   -492.128787  19123.231594    288.245552                    
V 13  17685.367582 -16948.475774  16331.722293      -.011801                    
P 14  21279.835669 -14673.459924  -5629.358894    117.866544                    
V 14  -3940.898936   6575.641178 -31289.187973       .031105                    
P 15   5164.999073  15934.012500 -20565.030739   -169.019695                    
V 15 -18643.638904  18456.377096   9760.298086       .040860                    
P 16   2786.395412 -23226.087304  12335.512370   -136.667465                    
V 16   5923.382828  14695.015234  26672.731056      -.031228                    
P 17 -21386.992626  13510.006921  -7592.822175    180.251549                    
V 17   5046.928527  -8932.257692 -29883.513896       .008044                    
P 18  16548.026028   4860.200368 -19991.676421    111.816856                    
V 18   5614.196120  25456.463794  10309.327295       .021352                    
P 19   -604.723301 -17794.689209 -19598.402590    -94.597221                    
V 19  19729.055537 -15431.646827  13723.373562      -.035346                    
P 20 -14021.333642 -20404.176930   9569.394470     48.988239                    
V 20   -739.070964 -12768.877013 -27825.203723      -.001248                    
P 21  26281.199007   4875.378852  -2624.729658   -111.359799                    
V 21   2794.457602   4047.504905  30465.137720      -.026946                    
P 22  13611.504635  -8942.240938 -20802.013855    156.497940                    
V 22   7548.649064  25853.218355  -6217.811057      -.006381                    
P 23 -10906.738633 -10440.294707  21849.196659    336.531033                    
V 23  19580.411511 -19638.837107     62.999414      -.021816                    
P 24 -16876.596586 -15463.005130 -13667.654432    350.203439                    
V 24  17264.812393   2895.713763 -24229.645006       .035048                    
P 25  16183.747056  11998.480383  17291.871960    -59.437903                    
V 25   4709.593819  21539.790482 -19338.544467      -.022365                    
P 26  -7842.250187  20475.680489 -15247.942668    -78.734714                    
V 26 -14773.677128  11187.928995  23916.058500      -.087894                    
P 27  10338.227189  14926.784818 -18799.417346    219.676506                    
V 27 -24925.152222  -3802.558384 -15909.413407       .036309                    
P 28 -14026.184046   4521.652925 -21588.633670     10.763887                    
V 28  -7001.559841 -27728.440077  -1502.418490       .018495                    
P 29  17355.793021   2673.765863  19992.002184    172.592117                    
V 29 -17390.318118  18310.398912  12733.866310       .028388                    
P 30  10452.398548 -13261.670714  20099.780106    307.197324                    
V 30   9382.701898  24749.495551  11227.312605       .031580                    
P 31  14779.900275 -10036.655251  19930.860274     21.606853                    
V 31  23734.562151   7001.640227 -14040.465315       .039916                    
P 32  -7228.675959 -25623.325708   3157.182170   -159.175209                    
V 32   1821.887544  -4015.294638 -31083.374962      -.081863                    
EOF
